ONEWEB-0584             
1 54651U 22166K   24109.87546435  .00000073  00000+0  14599-3 0  9996
2 54651  87.9313  41.0759 0002015  68.5319 291.6030 13.21826038 67244
ONEWEB-0585             
1 54652U 22166L   24109.82497791  .00000091  00000+0  18963-3 0  9991
2 54652  87.9315  41.0932 0001679  80.3705 279.7619 13.21829525 67240
ONEWEB-0586             
1 54653U 22166M   24109.83760231  .00000070  00000+0  13738-3 0  9997
2 54653  87.9310  41.1093 0001904  74.1787 285.9556 13.21825290 67241
ONEWEB-0587             
1 54654U 22166N   24109.84707110  .00000109  00000+0  23330-3 0  9998
2 54654  87.9306  41.0638 0001881  91.1594 268.9756 13.21827810 67401
ONEWEB-0589             
1 54655U 22166P   24109.83444564  .00000105  00000+0  22349-3 0  9994
2 54655  87.9311  41.0951 0002502  57.9308 302.2068 13.21828942 67269
ONEWEB-0590             
1 54656U 22166Q   24109.85811209 -.00004393  00000+0 -10669-1 0  9996
2 54656  87.9314  41.0954 0002234  85.9670 274.1719 13.21847501 67252
ONEWEB-0591             
1 54657U 22166R   24109.87072465  .00000032  00000+0  44885-4 0  9996
2 54657  87.9309  41.0913 0001999  74.2864 285.8491 13.21827851 67280
ONEWEB-0592             
1 54658U 22166S   24109.87388844  .00000029  00000+0  39447-4 0  9992
2 54658  87.9306  41.0583 0002127  72.6472 287.4895 13.21827423 67160
ONEWEB-0593             
1 54659U 22166T   24109.82183178  .00000083  00000+0  16871-3 0  9996
2 54659  87.9310  41.0919 0002058  73.2608 286.8752 13.21828851 67262
ONEWEB-0594             
1 54660U 22166U   24109.84076549  .00000075  00000+0  15036-3 0  9996
2 54660  87.9312  41.0859 0001727  81.7259 278.4071 13.21826517 67287
ONEWEB-0595             
1 54661U 22166V   24109.89437871  .00000110  00000+0  23582-3 0  9996
2 54661  87.9311  41.0644 0002033  87.1890 272.9476 13.21827657 67263
ONEWEB-0596             
1 54662U 22166W   24109.86758082 -.00000014  00000+0 -64993-4 0  9991
2 54662  87.9312  41.0736 0002257  72.9814 287.1567 13.21825731 67735
ONEWEB-0597             
1 54663U 22166X   24109.77293823  .00000047  00000+0  83264-4 0  9995
2 54663  87.9312  41.0942 0001923  68.4796 291.6543 13.21828902 67257
ONEWEB-0600             
1 54664U 22166Y   24109.83130133  .00000113  00000+0  24114-3 0  9999
2 54664  87.9307  41.1263 0001846  72.4900 287.6436 13.21827671 67231
ONEWEB-0601             
1 54665U 22166Z   24109.82341613  .00000109  00000+0  23130-3 0  9998
2 54665  87.9314  41.0874 0002243  67.9530 292.1842 13.21827914 67420
ONEWEB-0602             
1 54666U 22166AA  24109.86441389  .00000013  00000+0 -33814-6 0  9992
2 54666  87.9315  41.0840 0001955  68.6246 291.5096 13.21827209 67270
ONEWEB-0603             
1 54667U 22166AB  24109.86914808  .00000005  00000+0 -18707-4 0  9997
2 54667  87.9317  41.0830 0002069  65.1272 295.0077 13.21827993 67201
ONEWEB-0604             
1 54668U 22166AC  24109.85654053  .00000059  00000+0  11173-3 0  9997
2 54668  87.9309  41.0697 0001609  74.6847 285.4464 13.21830209 67168
ONEWEB-0605             
1 54669U 22166AD  24109.85023235  .00000082  00000+0  16622-3 0  9990
2 54669  87.9307  41.1044 0002447  67.7092 292.4301 13.21827271 67231
ONEWEB-0606             
1 54670U 22166AE  24109.87230531  .00000024  00000+0  25503-4 0  9998
2 54670  87.9314  41.0866 0001887  84.6146 275.5203 13.21825455 67298
ONEWEB-0607             
1 54671U 22166AF  24109.76348762  .00000083  00000+0  16879-3 0  9993
2 54671  87.9309  41.0880 0001957  70.6414 289.4932 13.21826169 67252
ONEWEB-0608             
1 54672U 22166AG  24109.84550042  .00000130  00000+0  28216-3 0  9990
2 54672  87.9318  41.0900 0002273  64.9143 295.2227 13.21826767 67271
ONEWEB-0610             
1 54673U 22166AH  24109.82658172  .00000098  00000+0  20535-3 0  9991
2 54673  87.9310  41.0914 0002213  68.7574 291.3796 13.21827507 67173
ONEWEB-0611             
1 54674U 22166AJ  24109.82027077  .00000074  00000+0  14833-3 0  9994
2 54674  87.9311  41.0919 0001683  91.9509 268.1818 13.21826922 67162
ONEWEB-0612             
1 54675U 22166AK  24109.83289078  .00000125  00000+0  27152-3 0  9992
2 54675  87.9309  41.0731 0002127  72.4506 287.6860 13.21825818 67152
ONEWEB-0615             
1 54676U 22166AL  24109.81395508  .00000085  00000+0  17341-3 0  9991
2 54676  87.9310  41.1017 0001802  70.8039 289.3290 13.21827889 67162
ONEWEB-0655             
1 54677U 22166AM  24109.86281920 -.00000460  00000+0 -11459-2 0  9991
2 54677  87.9310  41.0934 0001563  62.4130 297.7163 13.21824617 67161
ONEWEB-0659             
1 54678U 22166AN  24109.88019711  .00000047  00000+0  81367-4 0  9997
2 54678  87.9308  41.0972 0001985  86.6831 273.4530 13.21826172 67252
ONEWEB-0685             
1 54679U 22166AP  24109.88177048  .00000023  00000+0  25297-4 0  9990
2 54679  87.9309  41.0857 0001880  68.5817 291.5518 13.21829977 67144
ONEWEB-0712             
1 54680U 22166AQ  24109.78647339  .00000043  00000+0  79890-4 0  9996
2 54680  87.9150  25.9057 0001554  89.0379 271.0930 13.16594825 68183
ONEWEB-0714             
1 54681U 22166AR  24109.81238130  .00000089  00000+0  18344-3 0  9992
2 54681  87.9311  41.0848 0001858  69.6211 290.5122 13.21826081 67250
ONEWEB-0532             
1 55140U 23004A   24109.52438293 -.00000016  00000+0 -75341-4 0  9998
2 55140  87.9212 163.0021 0002686  92.6804 267.4635 13.17650600 63595
ONEWEB-0533             
1 55141U 23004B   24109.64097955  .00000377  00000+0  10132-2 0  9991
2 55141  87.8966 147.8141 0001912  92.2501 267.8846 13.12441108 64499
ONEWEB-0541             
1 55142U 23004C   24109.74097474 -.00000193  00000+0 -58168-3 0  9999
2 55142  87.9016 178.0724 0002095  98.2171 261.9195 13.11417605 62474
ONEWEB-0543             
1 55143U 23004D   24109.59337332  .00000067  00000+0  13622-3 0  9997
2 55143  87.9128 132.7320 0001629  96.7150 263.4167 13.18686414 65630
ONEWEB-0544             
1 55144U 23004E   24109.58706220 -.00000020  00000+0 -82475-4 0  9997
2 55144  87.9129 132.7177 0002129  96.5416 263.5959 13.18686301 65636
ONEWEB-0560             
1 55145U 23004F   24109.50486012  .00000003  00000+0 -24555-4 0  9999
2 55145  87.9138 132.6812 0001900 106.9574 253.1766 13.18687197 65634
ONEWEB-0565             
1 55146U 23004G   24109.57437803 -.00013572  00000+0 -34475-1 0  9996
2 55146  87.9132 132.7483 0002414  97.5438 262.5968 13.18753155 65635
ONEWEB-0567             
1 55147U 23004H   24109.49222017  .00000055  00000+0  10693-3 0  9995
2 55147  87.9130 132.7179 0002201 108.3156 251.8216 13.18684926 65623
ONEWEB-0569             
1 55148U 23004J   24109.95964879 -.00000038  00000+0 -13902-3 0  9995
2 55148  87.8896 117.3063 0002355 122.2996 237.8362 13.13468914 66573
ONEWEB-0570             
1 55149U 23004K   24109.47955560  .00000019  00000+0  14569-4 0  9998
2 55149  87.9130 132.7159 0002722  89.4965 270.6479 13.18687563 65617
ONEWEB-0571             
1 55150U 23004L   24109.54912500  .00000285  00000+0  68971-3 0  9995
2 55150  87.9128 132.7074 0002832 114.2584 245.8844 13.18686717 65630
ONEWEB-0572             
1 55151U 23004M   24109.63193777 -.00000063  00000+0 -19512-3 0  9996
2 55151  87.9211 162.9882 0002355  98.4712 261.6687 13.17647422 63506
ONEWEB-0573             
1 55152U 23004N   24109.54279410 -.00000973  00000+0 -25001-2 0  9995
2 55152  87.9128 132.7325 0003113 102.5578 257.5902 13.18690154 65621
ONEWEB-0588             
1 55153U 23004P   24109.61235015  .00000018  00000+0  12892-4 0  9991
2 55153  87.9135 132.6819 0002657  92.3568 267.7868 13.18685220 65637
ONEWEB-0598             
1 55154U 23004Q   24109.71662387  .00000489  00000+0  13435-2 0  9993
2 55154  87.9017 178.1167 0002574 115.6911 244.4482 13.11415172 62425
ONEWEB-0599             
1 55155U 23004R   24109.66831515  .00000036  00000+0  60474-4 0  9994
2 55155  87.9216 162.9612 0002044 103.2168 256.9192 13.17649549 63512
ONEWEB-0614             
1 55156U 23004S   24109.71175315  .00000471  00000+0  12920-2 0  9994
2 55156  87.9020 178.1205 0002190  89.6724 270.4655 13.11416458 62362
ONEWEB-0616             
1 55157U 23004T   24109.71103552 -.00000055  00000+0 -17431-3 0  9992
2 55157  87.9214 162.9640 0001082 125.6336 234.4896 13.17649995 63730
ONEWEB-0617             
1 55158U 23004U   24109.70037881  .00000105  00000+0  26101-3 0  9991
2 55158  87.9016 178.1205 0002441  93.3634 266.7773 13.11416851 62388
ONEWEB-0618             
1 55159U 23004V   24109.91909515  .00000551  00000+0  21935-3 0  9992
2 55159  86.9023 114.3627 0015498 112.5417 247.7417 14.26792180 66898
ONEWEB-0619             
1 55160U 23004W   24109.66672975  .00000017  00000+0  10927-4 0  9990
2 55160  87.9214 162.9489 0001505  89.8019 270.3285 13.17651047 63624
ONEWEB-0620             
1 55161U 23004X   24109.69551423 -.00000074  00000+0 -24350-3 0  9997
2 55161  87.9019 178.1301 0002589  98.0557 262.0864 13.11418044 62354
ONEWEB-0621             
1 55162U 23004Y   24109.72149233  .00000497  00000+0  13675-2 0  9998
2 55162  87.9014 178.0957 0001932  87.5948 272.5402 13.11414283 62337
ONEWEB-0622             
1 55163U 23004Z   24109.72797324  .00000260  00000+0  69675-3 0  9999
2 55163  87.9015 178.1098 0002832  87.0403 273.1049 13.11416312 62325
ONEWEB-0623             
1 55164U 23004AA  24109.66200771 -.00000006  00000+0 -48558-4 0  9996
2 55164  87.9214 163.0034 0002624  81.5101 278.6328 13.17648415 63613
ONEWEB-0624             
1 55165U 23004AB  24109.60776745 -.00000202  00000+0 -59641-3 0  9992
2 55165  87.8966 147.8291 0002136  88.2365 271.9008 13.12442560 64481
ONEWEB-0625             
1 55166U 23004AC  24109.65092323 -.00000046  00000+0 -15057-3 0  9990
2 55166  87.9214 163.0044 0001760  93.2541 266.8791 13.17649815 63601
ONEWEB-0626             
1 55167U 23004AD  24109.64142726 -.00000020  00000+0 -84212-4 0  9995
2 55167  87.9212 163.0072 0002629 105.8132 254.3289 13.17652118 63606
